name,address,longitude,latitude
Atalanta's Aerialists,"360 Boniface Pkwy, Anchorage, AK 99504, United States",-149.7808598,61.22176140000001
Studio Pulse Center for Dance + The Annex Yoga & Dance Fitness,"2422 E Tudor Rd, Anchorage, AK 99503, United States",-149.8362088,61.1802734
Cirque Alaska,"3651 Stoneridge St, Fairbanks, AK 99701, United States",-147.7226735,64.8118877
The Fitness Studio,"2894 Elvira Ave, North Pole, AK 99705, United States",-147.3518371,64.7710647
Golden Heart Performing Arts,"2815 Horner Ct, Fairbanks, AK 99709, United States",-147.7880019,64.8480841
AKInverted,"2525 Industrial Blvd, Juneau, AK 99801, United States",-134.6050767,58.3692879
Sahara Storm Productions,"Unit B3, E. 301 Outer Springer Loop, Palmer, AK 99645, United States",-149.1171299,61.58598600000001
Studio Steel,"2130 Highland Ave, Birmingham, AL 35205, United States",-86.79274749999999,33.5002623
Her Moves Dance Fitness Studio,"5510 Wares Ferry Rd # R, Montgomery, AL 36117, United States",-86.208951,32.390836
PYT Studio,"1148 11th Ave S, Birmingham, AL 35205, United States",-86.8089203,33.49512929999999
Gemini Studioz,"3351 Moffett Rd, Mobile, AL 36607, United States",-88.12000150000001,30.7052077
The Empowerment Lounge,"2055 Airport Blvd Suite E, Mobile, AL 36606, United States",-88.09051529999999,30.6762308
Moxie Krew Dance Fitness Studio LLC,"1247 S Oates St, Dothan, AL 36301, United States",-85.3929295,31.20816169999999
Dollhouse Dance Factory,"5357 1st Ave N, Birmingham, AL 35212, United States",-86.75467429999999,33.5381826
HypnotQ Island,"2033 Stanford Dr SW, Huntsville, AL 35801, United States",-86.58763809999999,34.7170858
Soles Dance Center,"2100 W Ferry Way SW, Huntsville, AL 35801, United States",-86.592232,34.6997466
North Alabama Dance Center,"5829 Oakwood Rd NW, Huntsville, AL 35806, United States",-86.6783882,34.7574061
iDance 4 Life Studio/ Birmingham Slayers,"2111 Center Point Pkwy, Birmingham, AL 35215, United States",-86.6831076,33.6406485
Broadway South Dance,"4715 Airport Blvd #300, Mobile, AL 36608, United States",-88.1748555,30.6748512
Nomadic Tapestry,"1219 Jordan Ln NW, Huntsville, AL 35816, United States",-86.6288593,34.74095130000001
Southern Elegance Dance Studio,"3120 D, Leeman Ferry Rd SW, Huntsville, AL 35801, United States",-86.592503,34.696659
Art in Motion Dance Academy,"8300 Whitesburg Dr, Huntsville, AL 35802, United States",-86.5666932,34.65687880000001
Cabaret Dothan Dance Club,"2563 Ross Clark Cir, Dothan, AL 36301, United States",-85.4191732,31.2023626
The Dance Centre,"5100 Union Station Professional Pk, Northport, AL 35473, United States",-87.56834959999999,33.2562623
Southern Sensations Dance Studio,"7663 Hwy 72 W, Madison, AL 35758, United States",-86.73549799999999,34.754416
The Jade Vine,"107 Arlington Dr Suite D, Madison, AL 35758, United States",-86.7568508,34.6771162
J.O.V.A.N.I: The Dance Factory,"906 North St E, Talladega, AL 35160, United States",-86.08206779999999,33.4417609
Arkansas Circus Arts,"10503 Maumelle Blvd b1, North Little Rock, AR 72113, United States",-92.3776591,34.8269527
The Diva Dive,"2337 N College Ave, Fayetteville, AR 72703, United States",-94.1536069,36.0938637
Kiki Dance Studio,"721 S Gee St, Jonesboro, AR 72401, United States",-90.7260718,35.8362503
Twisted Flight Fitness-Pole & Aerial,"1039 S Gutensohn Rd f, Springdale, AR 72762, United States",-94.1608784,36.1766114
Gemini Fitness,"229 W Capitol Ave Suite D, Little Rock, AR 72201, United States",-92.2734648,34.744051
Body by Resilience,"910 W Dixon Rd, Little Rock, AR 72206, United States",-92.2701293,34.6665284
Dance Dynamics,"1723 Merrill Dr, Little Rock, AR 72212, United States",-92.399994,34.77119
Slayit Fit,"2124 Military Rd A, Benton, AR 72015, United States",-92.5689389,34.5846763
Pixie Dust & Pointed Toes,"1380 SW Westpark Dr #10, Bentonville, AR 72712, United States",-94.2250931,36.357781
Fort Smith Aerial Fitness,"2120 S Waldron Rd building a suite 1, Fort Smith, AR 72903, United States",-94.3738419,35.3615356
Purple Palace Pole Studio- Pole Dancing in Phoenix,"2925 N 24th St, Phoenix, AZ 85016, United States",-112.0299088,33.4812165
Prowess Pole Fitness,"2039 E Cedar St #105, Tempe, AZ 85281, United States",-111.8976518,33.4115141
EXPRESS MiE Pole Dance Studio,"1655 W Chandler Blvd #5, Chandler, AZ 85224, United States",-111.870067,33.3053953
VIOLET FLAME STUDIOS,"4408 N Miller Rd #101, Scottsdale, AZ 85251, United States",-111.9190041,33.5014069
Beautiful Bodies Pole Dance Fitness,"16578 W Greenway Rd Suite 200, Surprise, AZ 85388, United States",-112.4143096,33.6256126
Pole Power Fitness,"2432 W Peoria Ave #1071, Phoenix, AZ 85029, United States",-112.1109636,33.5837141
Vertica Fitness Oro Valley,"1335 W Lambert Ln #115, Oro Valley, AZ 85737, United States",-110.9941901,32.394857
Vertica Fitness Tucson,"3957 E Speedway Blvd #201, Tucson, AZ 85712, United States",-110.908381,32.2370365
Paradise Pole Fitness,"17224 N 43rd Ave Suite 108, Glendale, AZ 85308, United States",-112.1524293,33.6416475
Studio Divine,"1201 Iron Springs Rd #8, Prescott, AZ 86305, United States",-112.4859087,34.560264
Anima Flow Movement & Bodywork,"1835 W State Rte 89A #3, Sedona, AZ 86336, United States",-111.7917772,34.8632876
Tough Lotus Bungee. Aerial. Bombshell. Fitness.,"3050 N Dobson Rd # 2, Chandler, AZ 85224, United States",-111.8771199,33.3510827
Polefiction by Trish,"4500 E Speedway Blvd #72, Tucson, AZ 85711, United States",-110.8960853,32.2351723
Momentum Aerial,"1802 W Kaibab Ln #170, Flagstaff, AZ 86001, United States",-111.6755799,35.1898775
Studio VaVaVoom,"825 E McKellips Rd, Tempe, AZ 85281, United States",-111.9273003,33.4508823
Evolve Dance & Fitness,"26 E Baseline Rd #114, Phoenix, AZ 85042, United States",-112.071323,33.3786976
Purely Dance LLC,"4236 W Bell Rd, Glendale, AZ 85308, United States",-112.1498388,33.6405986
Dancers Ink LLC,"5225 E Southern Ave Suite C-101, Mesa, AZ 85206, United States",-111.7175309,33.3922684
Aerial Warehouse,"18395 S 186th Way #106, Queen Creek, AZ 85142, United States",-111.6807022,33.2818711
Twerk in Style Fitness,"1337 S Gilbert Rd, Mesa, AZ 85204, United States",-111.786898,33.391005
Evolve Pole & Dance Studio,"5872 W Pico Blvd Upstairs, 5872 W Pico Blvd, Los Angeles, CA 90019, United States",-118.3671,34.051384
Secret Pole Dance Studio,"11409 Jefferson Blvd, Culver City, CA 90230, United States",-118.3964907,33.9903785
BeSpun Pole Dance Workout | Hollywood,"7561 Sunset Blvd, Los Angeles, CA 90046, United States",-118.3544475,34.0983137
Beehive Pole Studio,"544 N Fair Oaks Ave, Pasadena, CA 91103, United States",-118.15029,34.1552406
Jagged Vertical Dance & Fitness,"11655 CA-2, Los Angeles, CA 90025, United States",-118.4554588,34.0443249
The Vertitude L.A. - Pole : Aerial : Fitness,"8511 Canoga Ave suite d, Canoga Park, CA 91304, United States",-118.5980772,34.2250957
Oakland Pole + Dance,"366A Grand Ave, Oakland, CA 94610, United States",-122.2550697,37.8090868
San Francisco Pole + Dance,"301 8th St #225, San Francisco, CA 94103, United States",-122.4096337,37.7748024
Luscious Maven Pole Studio,"11135 Weddington St # 113, North Hollywood, CA 91601, United States",-118.374055,34.1672167
Black Velvet Pole Fitness,"14676 Pipeline Ave Suite H, Chino Hills, CA 91709, United States",-117.7165927,33.9874426
Inversion Dance Studios,"710 N Brea Blvd, Brea, CA 92821, United States",-117.8943213,33.9302137
Sedusa Pole Dance Studio,"1300 Dell Ave, Campbell, CA 95008, United States",-121.9534491,37.2676512
The Dollhouse Fitness,"535 Encinitas Blvd STE 104, Encinitas, CA 92024, United States",-117.2798,33.04613060000001
Sisters in Motion - Licensed S Factor Studio,"245 Columbus Ave, San Francisco, CA 94133, United States",-122.406327,37.7974353
Berkeley Pole + Dance,"1636 University Ave, Berkeley, CA 94703, United States",-122.2790282,37.8706147
PŌL,"11834 Teale St, Los Angeles, CA 90230, United States",-118.4015453,33.9849649
Embody Alternative Fitness,"3301 E Hill St, Signal Hill, CA 90755, United States",-118.1533333,33.7976667
Romance and Dance,"22221 Avalon Blvd, Carson, CA 90745, United States",-118.2641954,33.8249919
CoCreate Pole Fitness,"711 S Olive St, Los Angeles, CA 90014, United States",-118.2559921,34.0463157
Ly's Pole Studio,"2092 Concourse Dr STE 87, San Jose, CA 95131, United States",-121.8894223,37.3963328
Lifted Pole Fitness,"574 Searls Ave, Nevada City, CA 95959, United States",-121.0243037,39.2520688
Studio 3sixT,"next to Faded Barbershop, Parking lot, 2553 S Colorado Blvd #109LL, Denver, CO 80222, United States",-104.9416257,39.6708937
Fit Body & Pole,"3360 Templeton Gap Rd, Colorado Springs, CO 80907, United States",-104.7946488,38.8784787
Pole Revolution LLC,"1861 N Circle Dr, Colorado Springs, CO 80909, United States",-104.7736449,38.8586927
Tease Studio,"3534 Walnut St, Denver, CO 80205, United States",-104.9745359,39.7680981
Rockstar Pole Fitness,"8841 N Harlan St, Westminster, CO 80031, United States",-105.0650809,39.8576916
Selenite Studio Pole Fitness,"9083 W Peakview Dr, Littleton, CO 80123, United States",-105.0999953,39.5989978
The Pole POD,"800 W 8th Ave, Denver, CO 80204, United States",-104.9977139,39.7287095
Vertical Fusion,"6655 Arapahoe Rd Suite #E, Boulder, CO 80303, United States",-105.1985015,40.0150375
Lime Light Fitness,"1611 S College Ave #102, Fort Collins, CO 80525, United States",-105.0786153,40.5661965
Xpression Studio Denver,"1201 Santa Fe Dr d, Denver, CO 80204, United States",-104.999081,39.7354626
Peacock Pole Art & Body Weight Fitness LLC.,"425 N Santa Fe Ave, Pueblo, CO 81003, United States",-104.6072654,38.2714704
Vertical Fusion,"3523 S Mason St, Fort Collins, CO 80525, United States",-105.0794425,40.5389056
Vertical Fusion Longmont,"630 Main St, Longmont, CO 80501, United States",-105.1023101,40.1702313
AerialWorks,"1050 Topeka Way #1, Castle Rock, CO 80109, United States",-104.8734349,39.3726261
Denver Dance,"2030 Oneida St, Denver, CO 80207, United States",-104.9079092,39.7480628
Alchemy of Movement Dance Fitness Studio Boulder,"2436 30th St, Boulder, CO 80301, United States",-105.252935,40.02573539999999
Studio B Dance and Fitness Center,"842 N Summit Blvd # 35, Frisco, CO 80443, United States",-106.0966003,39.58932069999999
Catwoman Pole Academy,"949 Walnut St, Boulder, CO 80302, United States",-105.2824109,40.01655299999999
Pole Control Studios,"Sell Poles,Private Lessons and Private Parties, 1429 Park St 1st Floor #427, Hartford, CT 06106, United States",-72.7022582,41.7574861
Work It Dance and Fitness,"19 N Main St, Norwalk, CT 06854, United States",-73.4186012,41.0996308
The Girl Spot,"260 Quarry Rd, Milford, CT 06460, United States",-73.0119998,41.2399601
PoleFly Aerial Fitness LLC,"315 Peck St, New Haven, CT 06513, United States",-72.89972689999999,41.3162493
Aerial Arts Fitness,"39 Wedgewood Dr, Jewett City, CT 06351, United States",-71.9830952,41.60308819999999
Empowered Aerial Fitness,"316 Courtland Ave, Stamford, CT 06906, United States",-73.5169982,41.0675087
Pole Position Dance Studio,"110 Mamaroneck Ave, White Plains, NY 10601, United States",-73.765889,41.029858
PoleFly Aerial Fitness LLC,"53 E Industrial Rd suite b 1, Branford, CT 06405, United States",-72.7515686,41.29815809999999
Apex Pole Fitness,"11 Sycamore Way, Branford, CT 06405, United States",-72.7532469,41.29960760000001
Floorplay Studio,"1127 Valley Rd Suite 202, Hockessin, DE 19707, United States",-75.6981768,39.7903565
Foxy Fitness Studio & Pole,"8010 W Colonial Dr #130, Orlando, FL 32818, United States",-81.492145,28.550205
Alegre Pole & Aerial,"6881 Kingspointe Pkwy STE 16, Orlando, FL 32819, United States",-81.43718080000001,28.4604528
Flo Space Orlando,"1000 N Magnolia Ave A, Orlando, FL 32803, United States",-81.3772754,28.5585531
Dandelion,"13019 S Orange Blossom Trl, Orlando, FL 32837, United States",-81.40299019999999,28.376852
Spinderella Fitness Inc.,"2246 E Semoran Blvd, Apopka, FL 32703, United States",-81.46945500000001,28.6714523
Mizhani Pole Fitness,"2246 E Semoran Blvd, Apopka, FL 32703, United States",-81.46807629999999,28.6729982
Impulse Studios Pole Dance for Fitness,"6037 Winthrop Commerce Ave, Riverview, FL 33578, United States",-82.3155288,27.8927707
Florida Pole Fitness Championship,"425 N. Bumby Ave., Orlando, FL 32803, United States",-81.413626,28.445826
Bliss Fitness Studio Melbourne Florida,"726 E New Haven Ave, Melbourne, FL 32901, United States",-80.60803849999999,28.0787249
Impulse Studios Pole Dance & Exotic Fitness,"5508 Haines Rd N, St. Petersburg, FL 33714, United States",-82.670063,27.8220589
Buttercup Pole Dance LLC,"3251 W Hillsborough Ave, Tampa, FL 33614, United States",-82.4960632,27.9978294
Happy Kiss Pole Dance,"501 NW 23rd Ave Suite B, Gainesville, FL 32609, United States",-82.3288582,29.6735037
Iron X Fitness (Pole),"713 Honore Ave, Sarasota, FL 34232, United States",-82.4634858,27.3295778
Intice Dance Fitness Pole Dance Fitness & Boutique,"2104 34th St S, St. Petersburg, FL 33711, United States",-82.6788024,27.7494506
ARIES POLE FITNESS LLC,"9903 Alafia Vista Dr, Gibsonton, FL 33534, United States",-82.37470429999999,27.8538465
Apple Jelly Studios Pole Dance Fitness,"463 10th St N unit c, St. Petersburg, FL 33705, United States",-82.6472795,27.7770468
Studio Nightshade Pole Dance,"11144 N 30th St, Tampa, FL 33612, United States",-82.426695,28.0498442
Sensual Souls Pole Dance & Fitness,"2850 Stirling Rd, Hollywood, FL 33020, United States",-80.1651636,26.0476001
Pole Felony Fitness,"18970 NE 4th Ct, Miami, FL 33179, United States",-80.192829,25.948889
CHEEKY FITNESS Pole Dancing & Fitness Studio,"6076 Okeechobee Blvd Suite 43, West Palm Beach, FL 33417, United States",-80.13703579999999,26.7052537
Pole Waxers Pole Dance Studio,"1647 Canton Rd, Marietta, GA 30066, United States",-84.52991840000001,33.9913424
PoleLaTeaz: Pole and Aerial Dance Fitness Studio,"2700 Northeast Expy C-300, Atlanta, GA 30345, United States",-84.29656419999999,33.8578085
Secret Garden Pole Fitness Boutique,"3201 Atlanta Industrial Pkwy NW Suite 103, Atlanta, GA 30331, United States",-84.495627,33.7913594
Excluzive Dance Studio,"6030 GA-85 #108, Riverdale, GA 30274, United States",-84.4083467,33.5901756
Spice Pole + Aerial Fitness,"2148 Duluth Hwy, Duluth, GA 30097, United States",-84.0943145,33.9784469
"The World Famous Vertical Joes: Atlanta Pole Dance, Dance, Flexibility, Fitness, Aerial & More","976 Jefferson St NW c, Atlanta, GA 30318, United States",-84.4196202,33.7754726
Pink Poles Studio,"1743 Metropolitan Pkwy SW, Atlanta, GA 30315, United States",-84.4086694,33.706514
Fit & Fancy Dance Studio,"412 Eagles Landing Pkwy, Stockbridge, GA 30281, United States",-84.2076254,33.5150899
Twirl n Shape Pole Fitness,"550 Pleasant Hill Rd b106, Lilburn, GA 30047, United States",-84.11378429999999,33.9124907
JAZZY MOVES Atlanta Pole Dance Fitness Studio,"1745 Defoor Pl NW, Atlanta, GA 30318, United States",-84.4213223,33.8022996
The Milan Method Pole Dance Fitness Studio,"530 Joseph E Lowery Blvd SW, Atlanta, GA 30310, United States",-84.417205,33.7409811
Fit Candy Studio,"1410 Klondike Rd SW suite j, Conyers, GA 30094, United States",-84.0347805,33.6640868
Werk It Pole Studio,"1136 Mt Zion Rd, Morrow, GA 30260, United States",-84.3533692,33.5725276
Pole 4 UR Soul,"3497 Wheeler Rd, Augusta, GA 30909, United States",-82.0725951,33.488475
EmpowerMe Fitness Studio,"2143 GA-155 N, McDonough, GA 30252, United States",-84.1408802,33.5086964
Closet Poler,"40 Greenway Ct, Newnan, GA 30265, United States",-84.7399662,33.3961503
Spicy Studios,"1141 Bankhead Hwy Suite F, Carrollton, GA 30117, United States",-85.03739639999999,33.5934175
Finesse Pole Fitness,"5751 Milgen Rd Suite 101, Columbus, GA 31907, United States",-84.8887512,32.5235965
Persephone Pole Dance Fitness,"4111 Commerce St Ste 100B, Flowery Branch, GA 30542, United States",-83.8899955,34.2102098
First City Fitness & Savannah Cirque,"2127 1/2 E Victory Dr, Savannah, GA 31404, United States",-81.0633996,32.0396322
PoleArity Studio,"111 N King St #2b, Honolulu, HI 96817, United States",-157.8639281,21.3120706
Fit For a Goddess,"320 Ward Ave #202, Honolulu, HI 96814, United States",-157.8563531,21.2963809
Pole HI,"168 Kilauea st, Hilo, HI 96720, United States",-155.0856015,19.7221221
Pole Hale Hawai'i,"74-5583 Luhia St a2, Kailua-Kona, HI 96740, United States",-155.9981329,19.6479264
The Pole Room,"1476 HI-30 Suite E, Wailuku, HI 96793, United States",-156.5036329,20.8534461
Club B-FIT,"2700 University Ave Suite 332, West Des Moines, IA 50266, United States",-93.7416714,41.5984342
TGR Fitness,"1605 SE Delaware Ave, Ankeny, IA 50021, United States",-93.5799942,41.7135658
Pole Haus Fitness,"3548 N Brady St, Davenport, IA 52806, United States",-90.5692263,41.5560736
Nikki's Independent Pole Studio,"3690 W 83rd St Lot 4, Davenport, IA 52806, United States",-90.6281734,41.6041955
Love Life Pole Studio,"900 Keosauqua Way Studio 351, Des Moines, IA 50309, United States",-93.6305672,41.5911862
Aerial Elegance Academy,"5412 Center Point Rd NE Suite B, Cedar Rapids, IA 52402, United States",-91.6673119,42.0325293
All The Way Up Studio,"2910 Stoner Ct #6, North Liberty, IA 52317, United States",-91.6473999,41.751091
Allison's Dance Center,"4807 University Ave, Cedar Falls, IA 50613, United States",-92.4151205,42.5071164
Dynamix School of Dance,"4009 Floyd Blvd, Sioux City, IA 51108, United States",-96.3595995,42.5414451
Cirque Wonderland,"105 S 11th St, West Des Moines, IA 50265, United States",-93.7185284,41.56875429999999
A Step Ahead Dance Studio & Gymnastics Center,"109 Pearl St, Council Bluffs, IA 51503, United States",-95.8505018,41.259191
Dance New York - Coralville,"2441 Coral Ct #1, Coralville, IA 52241, United States",-91.60944080000002,41.7063428
Kinetic Energy,"6322 University Ave APT G, Cedar Falls, IA 50613, United States",-92.4341783,42.5148405
Sultry Dance and Fitness,"617 Euclid Ave, Des Moines, IA 50313, United States",-93.6255402,41.6279805
Devine Dancers,"2913 Ingersoll Ave, Des Moines, IA 50312, United States",-93.6571903,41.5863133
Dancing With Celeste,"2020 S St Aubin St, Sioux City, IA 51106, United States",-96.3558759,42.469955
Xtreme Dance,"1075 Cedar Cross Rd, Dubuque, IA 52003, United States",-90.7081419,42.4780434
Dance New York,"2347 Blairs Ferry Rd NE Suite 2, Cedar Rapids, IA 52402, United States",-91.67808,42.033926
Fusion Dance & Performing Arts,"148 Provision Pkwy, Waterloo, IA 50701, United States",-92.3856779,42.47066220000001
Nolte Academy,"1619 2nd St, Coralville, IA 52241, United States",-91.5852075,41.6774369
Ascension Pole and Dance,"8073 Fairview Ave, Boise, ID 83704, United States",-116.2820892,43.6176986
Ophidia Studio,"2615 W Kootenai St, Boise, ID 83705, United States",-116.2144894,43.5933622
Idaho Pole Dance Parties,"8073 Fairview Ave, Boise, ID 83704, United States",-116.2820477,43.618329
Boise Aerial & Fitness,"270 Cole Rd, Boise, ID 83709, United States",-116.2738453,43.6022891
Dance Depot,"340 1st St, Idaho Falls, ID 83401, United States",-112.0279896,43.4966912
Dance Tech Academy,"2633 14th N, Idaho Falls, ID 83406, United States",-111.98033,43.5093591
Elite Studios,"270 S Park Ave, Shelley, ID 83274, United States",-112.1240105,43.3784036
208 Arts,"238 Main Ave N, Twin Falls, ID 83301, United States",-114.4718678,42.5573573
Jete' Dance Studio,"2873 14th N Suite 200, Idaho Falls, ID 83401, United States",-111.9744999,43.50910040000001
Rising Goddess Fitness,"204 E Chicago Ave, Westmont, IL 60559, United States",-87.9699222,41.8031941
Fempress Fit,"2150 S Canalport Ave Suite 5C6, Chicago, IL 60608, United States",-87.65015249999999,41.8532298
Tease Dance & Fitness,"4014 Fox Valley Center Dr, Aurora, IL 60504, United States",-88.2191201,41.7593865
"Studio Phoenix, Inc.","3455 Salt Creek Ln #300, Arlington Heights, IL 60005, United States",-88.02439299999999,42.09176850000001
Fly Club,"2229 S Michigan Ave #410, Chicago, IL 60616, United States",-87.6233053,41.8520618
Flight Fitness Studio,"583 E Dundee Rd, Palatine, IL 60074, United States",-88.0313166,42.1387772
Bombshell Movement Studio,"2559 W 111th St, Chicago, IL 60655, United States",-87.68585829999999,41.6916434
Defy Gravity - Pole Fitness and Aerial Arts Studio,"158 Lincoln Square, Urbana, IL 61801, United States",-88.20717979999999,40.111199
Stiletto Dance Studios,"1843 W Chicago Ave, Chicago, IL 60622, United States",-87.6738713,41.8958245
Catalyst Movement Arts,"2116 W Grand Ave, Chicago, IL 60612, United States",-87.6801909,41.8909525
The Brass Ring,"2511 W North Ave, Chicago, IL 60647, United States",-87.6902073,41.9101373
Purepoles & Aerial Fitness,"5024 S State St, Chicago, IL 60609, United States",-87.62645529999999,41.8033791
Life Of A Pole Trick Studio,"415 W Huron St, Chicago, IL 60654, United States",-87.63918710000002,41.89449399999999
Pole Icons,"1919 N Milwaukee Ave, Chicago, IL 60647, United States",-87.6865813,41.9164525
Vertical Movement Dance and Fitness,"100 N Fairway Dr Suite 108, Vernon Hills, IL 60061, United States",-87.95553699999999,42.2277987
"Tiger Lily Vertical Fitness & Dance, Inc.","2460 W Main St #108, St. Charles, IL 60175, United States",-88.3442901,41.9136951
Pole Velocity Dance and Fitness,"1912 W Winnemac Ave # 1, Chicago, IL 60640, United States",-87.67692699999999,41.9734023
Pole Appeal,"2544 N Clark St, Chicago, IL 60614, United States",-87.6426448,41.9289257
Rondi's S.E.L.F. Fitness & PolElevation Aerial Studio,"1220-1224 Douglas Rd, Oswego, IL 60543, United States",-88.315491,41.70195229999999
Body of Bloomington,"115 Krispy Kreme Drive, Bloomington, IL 61704, United States",-88.950981,40.4813261
DID Fit- Do It Different Fitness,"5545 W Raymond St ste f, Indianapolis, IN 46241, United States",-86.2539031,39.7354497
"Wild Orchid: Pole, Sensual, & Embodied Movement Studio","217 W 6th St Suite 105, Bloomington, IN 47404, United States",-86.53579359999999,39.1674681
Chrome Fitness,"890 E 116th St #140, Carmel, IN 46032, United States",-86.1414667,39.9569178
Soma Pole Studio,"218 Sycamore St, South Bend, IN 46617, United States",-86.2471324,41.6783741
Sassy Fitness Studio,"722 E 500 S, Lafayette, IN 47909, United States",-86.8903895,40.3438771
Lush Movement Company,"3111 N First Ave b, Evansville, IN 47710, United States",-87.5731751,38.007528
Nexxus Movement: The Indianapolis Pole Boutique,"1315 Shelby St Suite 5, Indianapolis, IN 46203, United States",-86.1396776,39.7495833
Twerk & Dance NWI,"1516 N Main St, Crown Point, IN 46307, United States",-87.363315,41.437956
Essence Pole & Dance Studio,"3701 Murvihill Rd, Valparaiso, IN 46383, United States",-87.0156931,41.4494396
Ambition Group Fitness LLC,"2920 E Washington St, Indianapolis, IN 46201, United States",-86.1137947,39.7688294
Elevation Studios MHK,"1125 Laramie St STE A, Manhattan, KS 66502, United States",-96.5743456,39.1843306
ICT Pole Studio,"3135 W Maple St, Wichita, KS 67213, United States",-97.3796831,37.680229
Flow Foundry Studio,"301 S Meridian Ave Ste 113, Wichita, KS 67213, United States",-97.3722121,37.679966
Kansas City Aerial Arts,"5001 W 117th St, Leawood, KS 66211, United States",-94.6426586,38.9147675
Sway Ballroom & Latin Dance Studio,"407 S Hydraulic Ave, Wichita, KS 67211, United States",-97.3174527,37.6804773
Amira Dance Productions LLC,"1702 W Douglas Ave, Wichita, KS 67203, United States",-97.3603847,37.6842357
Dance Studio,"4743 Parallel Pkwy, Kansas City, KS 66104, United States",-94.6889446,39.1280624
Ad Astra Studio,"1029 New York St, Lawrence, KS 66044, United States",-95.2315412,38.9645204
The Dance Doctor,"9744 W 115th St, Overland Park, KS 66210, United States",-94.6978999,38.9223577
Voler - Thieves of Flight,"556 Lowell Ave, Kansas City, KS 66101, United States",-94.6237683,39.1012109
A Step Ahead Dance Studio,"1085 S Washington Ave, Wichita, KS 67211, United States",-97.3267317,37.6733785
Tatted Spindarella & CO,"109 Oak St, Bonner Springs, KS 66012, United States",-94.8817107,39.0556675
Empowered Flow Studio,"839 National Ave Suite 120, Lexington, KY 40502, United States",-84.4764454,38.0395678
Verticality Pole and Aerial Fitness,"314 Broadway St, Paducah, KY 42001, United States",-88.59741380000001,37.0868639
Freestyle Fitness,"1825 Plantside Dr, Jeffersontown, KY 40299, United States",-85.5718473,38.2171404
LADY KAVE,"1940 Harvard Dr, Louisville, KY 40205, United States",-85.6931905,38.223977
Pol'e Dance Studio,"5015 Preston Hwy, Louisville, KY 40213, United States",-85.7130305,38.1751548
Sora Aerial Arts,"170 Turner Cmns Wy Suite 130, Lexington, KY 40508, United States",-84.51863689999999,38.0724273
Taboo Dance & Fitness,"1128 1/2, Magnolia St, Bowling Green, KY 42103, United States",-86.4384469,36.9816169
Suspend,"721 E Washington St, Louisville, KY 40202, United States",-85.73867369999999,38.2556971
Belladance,"8605 Haines Dr C, Florence, KY 41042, United States",-84.66567119999999,38.9727942
SAFIYYAH DANCE COMPANY,"8001 Vine Crest Ave #7, Louisville, KY 40222, United States",-85.6087197,38.2604723
Bravo Dance Studio,"2138 Old Shepherdsville Rd, Louisville, KY 40218, United States",-85.6609635,38.1976056
MJM Studios,"5796 Constitution Dr, Florence, KY 41042, United States",-84.6682733,39.0153845
The Turning Pointe Dance Studio,"3649 O Hara Rd, Erlanger, KY 41018, United States",-84.6393681,39.036743
Studio Dee Dance,"3420 Valley Plaza Pkwy, Fort Mitchell, KY 41017, United States",-84.5369013,39.0370835
Stephens Dance Studios Boone County Ky,"Price Pike, Florence, KY 41042, United States",-84.6297719,39.0034725
Pole Perfect Fitness -New Orleans Pole Dancing Bachelorette Party and Pole Dancing Fitness Studio,"333 Canal St 3rd Floor, New Orleans, LA 70130, United States",-90.06509030000001,29.9516172
Awakenings NOLA Pole & Aerials,"1405 Canal St, New Orleans, LA 70112, United States",-90.0745347,29.9571834
Magnolia's Playground Yoga and Pole Fitness,"403 Fenetre Rd, Scott, LA 70583, United States",-92.1058892,30.2204332
TWRL,"3185 Balis Dr STE 109, Baton Rouge, LA 70808, United States",-91.1450104,30.4190838
Enchantress Dance and Fitness L.L.C.,"1521 Kuebel St # C, Elmwood, LA 70123, United States",-90.1930047,29.9635692
Creative Expressions Fitness Studio,"3100 Knight St #1, Shreveport, LA 71105, United States",-93.70362,32.4798318
Indulge Fitness,"1543 Delplaza Dr Ste 3, Baton Rouge, LA 70815, United States",-91.0829856,30.4382634
Awakenings NOLA Pole & Aerials,"941 Poland Ave, New Orleans, LA 70117, United States",-90.0317263,29.9633852
Flawless Pole Fitness,"2122 Hodges St Suite 3, Lake Charles, LA 70601, United States",-93.2162295,30.2116539
Storm's Pole World,"5210 Lapalco Blvd STE D, Marrero, LA 70072, United States",-90.104373,29.8758674
Steffany's Sweat-'N'-Stilettos,"4624 Cypress St Suite 5, West Monroe, LA 71291, United States",-92.178436,32.5149863
Body In Motion (B.I.M) Fitness & Dance Studio,"3924 Barron St, Metairie, LA 70002, United States",-90.1733694,30.0018521
Crescent Lotus Dance Studio,"3143 Calhoun St, New Orleans, LA 70125, United States",-90.1130078,29.947243
Sky High Studios | Pole Fitness & Dance,"Antico Business Center, 289 Elm St Unit 114, Marlborough, MA 01752, United States",-71.5711322,42.3489838
Boston Pole Fitness - Brighton,"414 Cambridge St, Boston, MA 02134, United States",-71.13393289999999,42.3546335
Soul Pole Dance & Fitness,"125 Main St, Springfield, MA 01105, United States",-72.5784382,42.0883716
Gilded Studio Pole Dance and Fitness,"336 Washington St, Dorchester, MA 02121, United States",-71.0736582,42.2996443
Paradigm Pole Fitness,"179A Grafton St, Worcester, MA 01604, United States",-71.7913196,42.2574506
North Shore Pole Fitness,"360 Merrimack St Entry i, Suite 330, Lawrence, MA 01843, United States",-71.1424002,42.7036384
Scarlet Studio Pole Fitness & Dance,"1106 Main Street The Franklin Building second floor, north wing, Brockton, MA 02301, United States",-71.0152445,42.0636247
Fly Together Fitness,"31 Woodbine St, Somerville, MA 02143, United States",-71.10623509999999,42.391816
Pole in the Wall,"95 Mill St #93a, Springfield, MA 01108, United States",-72.57574009999999,42.0907676
Love Pole Fitness and Aerial Arts,"27 Milliston Rd, Millis, MA 02054, United States",-71.3518764,42.16785
Cape Cod Pole Fitness,"16 Main St Unit 3, West Harwich, MA 02671, United States",-70.12047799999999,41.66959
Cape Cod Pole Parties,"62 Main St, Harwich, MA 02645, United States",-70.1272773,41.6991299
CAT Studio: Airbrush Tan/Aerial Dance/Sports: est. 2008,"544 Milford Rd, Swansea, MA 02777, United States",-71.2147978,41.7484336
Boston Pole Fitness - Newton,"230 California St, Newton, MA 02458, United States",-71.1976346,42.3645524
Boston pole Fitness - Malden,"888 Eastern Ave Unit 10, Malden, MA 02148, United States",-71.0448353,42.4304384
SuperShag Dance Studios - Charlestown,"42 8th St #100, Boston, MA 02129, United States",-71.0527923,42.3750086
Blier Enterprises Inc.,"12 Wallace Ave, Buzzards Bay, MA 02532, United States",-70.61271049999999,41.74662620000001
Bella Vita Pole Fitness,"661 Main St, Falmouth, MA 02540, United States",-70.6047329,41.5522321
Divas And Dolls Fitness,"4580 Beech Rd, Temple Hills, MD 20748, United States",-76.9393,38.824652
My Body Shop,"6001 66th Ave, Riverdale Park, MD 20737, United States",-76.903161,38.960355
Xpose Fitness,"1700 Joan Ave, Baltimore, MD 21234, United States",-76.5628144,39.3931153
Fantasy Fitness & Body Sculpting,"2100 Gwynn Oak Ave, Woodlawn, MD 21207, United States",-76.72630199999999,39.32194399999999
Poetry in Motion PoleSalon,"4030 W Garrison Ave Suite B, Baltimore, MD 21215, United States",-76.68202389999999,39.3425938
2D FIT aka 2D POLE FIT,"11392 Livingston Rd, Fort Washington, MD 20744, United States",-76.9923378,38.7331015
Phoenix Rising Movement Arts,"5714 Industry Ln Unit D, Frederick, MD 21704, United States",-77.416281,39.390704
Zenergy Pole and Yoga,"9401 Croom Acres Terrace, Upper Marlboro, MD 20772, United States",-76.7421868,38.7606802
Luna Aerial Dance & Performing Arts,"4750 Winchester Blvd #7, Frederick, MD 21703, United States",-77.5034866,39.3396339
Rise Above Aerial Arts,"6822 Oak Hall Ln Suite C, Columbia, MD 21045, United States",-76.8249739,39.1834185
Vertical Dance Co.,"20865 Callaway Village Way #2, Callaway, MD 20620, United States",-76.5228197,38.2396414
Pole Foundations,"530 S Conkling St Unit 1, Baltimore, MD 21224, United States",-76.56729399999999,39.285779
Extreme Pole Fitness Studio,"700 Frederick St, Hagerstown, MD 21740, United States",-77.7154451,39.6283408
Aerial Candy,"7117 Maple Ave, Takoma Park, MD 20912, United States",-77.0140291,38.9757094
Rendezvous Social Dance Studio & Fitness Club,"12104 Wilkins Ave, North Bethesda, MD 20852, United States",-77.1083257,39.0560908
Hustle and Flow,"155 Brackett St, Portland, ME 04102, United States",-70.266454,43.65073779999999
Studio X Vertical Fitness,"105 Main St, Waterville, ME 04901, United States",-69.6299844,44.55023449999999
Steel In Motion,"386 Fore St, Portland, ME 04101, United States",-70.2531922,43.6563858
Red Hot & Ladylike,"509 Forest Ave, Portland, ME 04101, United States",-70.2787596,43.6675331
Polartès Brand Fitness,"1 Marginal Way, Portland, ME 04101, United States",-70.2673235,43.6602035
Rosa Noreen - Belly Dance Classes and Performance,"108 High St, Portland, ME 04101, United States",-70.2622718,43.6531925
Empowered Pole Fitness,"227 Ward Rd, Augusta, ME 04330, United States",-69.6408239,44.32533369999999
Eye Candy Dance Studio,"9 Central St Suite 310, Bangor, ME 04401, United States",-68.77118469999999,44.801835
Dance Studio of Maine,"6 School St, Gorham, ME 04038, United States",-70.4431826,43.6797635
Studio For the Living Arts Dance Complex,"Gray Plaza Shopping Center, 21 Portland Rd, Gray, ME 04039, United States",-70.3286362,43.8819755
Haus of Paradigm Dance Company,"Bangor, ME 04401, United States",-68.7698571,44.8022002
Morita's School of Dance,"2256 U.S. Rte 2, Hermon, ME 04401, United States",-68.8911566,44.7986614
"Fitness Heaven, LLC.","599 Maine Ave, Farmingdale, ME 04344, United States",-69.77849619999999,44.2605345
Studio88 Pole Fitness,"27865 Orchard Lake Rd, Farmington Hills, MI 48334, United States",-83.36085609999999,42.5006549
"PoleFIT Revolution, LLC","41 W Eleven Mile Rd, Madison Heights, MI 48071, United States",-83.1060411,42.4906522
Bad Girl Fitness,"25513 Five Mile Rd, Redford Charter Twp, MI 48239, United States",-83.29384329999999,42.3993371
Vixen Dance,"20232 Livernois, Detroit, MI 48221, United States",-83.1416689,42.4434572
Fly Fit Pole Fitness and Aerial Studio,"5015 E Michigan Ave, Kalamazoo, MI 49048, United States",-85.5293415,42.2905284
Polarity,"1220 S University Ave STE 210, Ann Arbor, MI 48104, United States",-83.73331660000001,42.274783
PoleFIT Revolution - Shelby Twp.,"48129 Van Dyke Ave, Shelby Township, MI 48317, United States",-83.0342744,42.64927309999999
Alter Ego Pole Fitness,"16279 E Eleven Mile Rd, Roseville, MI 48066, United States",-82.9534848,42.4946999
Gemini Pole Fitness,"29461 Five Mile Rd, Livonia, MI 48154, United States",-83.33596089999999,42.3965091
Flirt Fitness Studio,"5312 Grand Haven Rd, Norton Shores, MI 49441, United States",-86.2201193,43.1559487
Flirt Fitness Studio,"5366 Plainfield Ave NE J, Grand Rapids, MI 49525, United States",-85.58174149999999,43.0544928
STUDIO LA FEMME,"41 W Chicago St Suite C, Coldwater, MI 49036, United States",-85.00318329999999,41.9407615
Aerial Dragonfly Movement Studio,"3025 Hilton Rd, Ferndale, MI 48220, United States",-83.1237513,42.4713804
The Pole Barn,"5500 W Clark Rd, Lansing, MI 48906, United States",-84.63269439999999,42.8156046
The Movement Suite,"2018 Cedar St Suite E, Holt, MI 48842, United States",-84.51540299999999,42.6409251
Be The Best You Studios LLC,"33056 Garfield Rd, Fraser, MI 48026, United States",-82.9491566,42.5400424
Zeal Aerial Fitness,"1111 Godfrey Ave SW ste s-290, Grand Rapids, MI 49503, United States",-85.68616519999999,42.9420303
FDX Pure Sole,"16312 Middlebelt Rd, Livonia, MI 48154, United States",-83.33380199999999,42.4068764
Bodies In Motion,"10660 E Carter Rd, Traverse City, MI 49684, United States",-85.641234,44.7802254
The Ann Arbor Aviary,"2875 Boardwalk Dr A, Ann Arbor, MI 48105, United States",-83.732936,42.245886
Dollhouse Pole Dance Studio,"1517 NE Central Ave, Minneapolis, MN 55413, United States",-93.2462232,45.0042644
Phoenix Flight Pole & Aerial studio,"2216 NE Central Ave, Minneapolis, MN 55418, United States",-93.247694,45.010505
The Pole Barn studio,"122 Water St S, Stillwater, MN 55082, United States",-92.8053727,45.0561319
Villainy Alternative Dance and Pole Studio,"3718 Cedar Ave S Unit A, Minneapolis, MN 55407, United States",-93.2475726,44.9355622
Pole Art Studio,"2637 27th Ave S, Minneapolis, MN 55406, United States",-93.2322427,44.954354
Knockout Bodies,"2216 NE Central Ave, Minneapolis, MN 55418, United States",-93.247616,45.0105046
Avalon Educational Institute,"12 Sunnyside St, Duluth, MN 55808, United States",-92.2053735,46.71043530000001
Aerial Affinity,"110 E Oak St, Le Sueur, MN 56058, United States",-93.9141769,44.4635162
The Chrome Pole,"110 E Oak St, Le Sueur, MN 56058, United States",-93.9140726,44.4636129
Fly Freak Studio,"755 Prior Ave N Suite 239, St Paul, MN 55104, United States",-93.1827392,44.9650268
Perception Body & Pole,"302 Mankato Ave ste a, Winona, MN 55987, United States",-91.6180475,44.043689
Frestyl Pole Fitness and Dance,"110 W Dukes St, Mankato, MN 56001, United States",-93.9850561,44.1868437
Lucent Movement Arts,"513 W St Germain St, St Cloud, MN 56301, United States",-94.1589707,45.5611147
Michelle Mynx Academy of Pole Dance,"3190 S Grand Blvd, St. Louis, MO 63118, United States",-90.2425941,38.5995282
Muse Pole Fitness,"3605 S Providence Rd STE 5, Columbia, MO 65203, United States",-92.3366508,38.9115425
Free Flow Fitness,"11726 St Charles Rock Rd # A, Bridgeton, MO 63044, United States",-90.415979,38.7445082
Alchemy Space Pole and Fitness,"524 Walnut St #340, Kansas City, MO 64106, United States",-94.5815717,39.1076836
The Stiletto Gym,"6133 Blue Ridge Blvd, Kansas City, MO 64133, United States",-94.4609731,39.010622
Pink Lemon Studio,"1708 W Terra Ln, O'Fallon, MO 63366, United States",-90.7525054,38.8040059
Dahlia Pole,"12785 New Halls Ferry Road, Florissant, MO 63033, United States",-90.286281,38.791261
Pole Worx Fitness,"1611 Genessee St Suite 200, Kansas City, MO 64102, United States",-94.6046869,39.09416770000001
Pole Fitness Studio at Shelia's Closet,"13107 E State Rte 350, Kansas City, MO 64138, United States",-94.4287232,38.9651188
Nauti Girl Fitness,"250 Racquet Club Dr, Lake Ozark, MO 65049, United States",-92.6845155,38.2016426
Rebelle Fitness,"1158 Clock Tower Plaza, Washington, MO 63090, United States",-91.0024337,38.5370223
Pole Worx,"1225 Union Ave, Kansas City, MO 64101, United States",-94.5994583,39.10235429999999
Yes Honey Studio,"Retail South, 1519 Tower Grove Ave, St. Louis, MO 63110, United States",-90.2565766,38.6227135
Central Studio,"5617 Pershing Ave, St. Louis, MO 63112, United States",-90.28342,38.648799
Dance Fit Flow,"1700 Locust St #300, Kansas City, MO 64108, United States",-94.5782032,39.093201
Cloud Nine Aerial Arts,"1100 Southeast Century Drive Or, 1157 SE Century Dr, Lee's Summit, MO 64081, United States",-94.3593632,38.8993102
Springfield Aerial Fitness,"2811 E Galloway St suite b, Springfield, MO 65804, United States",-93.2398609,37.1478305
Wild + Well,"602 S Business 54, Fulton, MO 65251, United States",-91.9523842,38.8379757
Dance Mission,"1440 E Lark St suite g, Springfield, MO 65804, United States",-93.2710606,37.1352443
aerosha,"2228 E Mirabeau St, Springfield, MO 65804, United States",-93.2532152,37.1633933
"Epic Dance & Fitness, Inc","829 Wilson Dr, Ridgeland, MS 39157, United States",-90.1383488,32.404759
Taboo Dance and Aerial Fitness,"856F State St, Jackson, MS 39201, United States",-90.1820774,32.2885681
Sassy Fitness,"5269 Keele St, Jackson, MS 39206, United States",-90.1531646,32.370043
"Aerial Fit Lab, LLC","2905 25th Ave suite f, Gulfport, MS 39501, United States",-89.0936342,30.3859138
Pole Fiction,"805 N Russell St Suite 4, Missoula, MT 59802, United States",-114.0191833,46.8789593
Reel Pole Dance Studio,"131 Moore Ln Suite D, Billings, MT 59101, United States",-108.5415319,45.7669464
Bozeman Aerial Fitness,"520 E Babcock St, Bozeman, MT 59715, United States",-111.0294486,45.6781799
Flying Lion Aerial Fitness,"80085 Gallatin Rd Suite D, Bozeman, MT 59718, United States",-111.1945608,45.64621770000001
Levitation Nation Aerial Studio,"27 Meridian Ct, Kalispell, MT 59901, United States",-114.3325499,48.1958093
BumbleBee Aerial Fitness LLC,"1429 Helena Ave, Helena, MT 59601, United States",-112.0153423,46.5996955
Mountain Air Dance: Aerial Arts Company,"111 S Grand Ave, Bozeman, MT 59715, United States",-111.0403305,45.6777987
Diversity Dance Studio,"100 S 24th St W Unit 6, Billings, MT 59102, United States",-108.5773478,45.7716982
Rimview dance studio II,"520 Wicks Ln, Billings, MT 59105, United States",-108.4733394,45.827002
Montana Dance Works,"45 Discovery Dr, Butte, MT 59701, United States",-112.5348282,45.9818827
Rim View Dance Studio,"3419 Central Ave, Billings, MT 59102, United States",-108.602639,45.769993
Live 2 Dance Studio,"1108 9th St S, Great Falls, MT 59405, United States",-111.2931081,47.4930864
Aunya's Belly Dance Studio,"1400 1st Ave N, Great Falls, MT 59401, United States",-111.2825009,47.505936
Montana Dance Center,"701 Daniel St, Billings, MT 59101, United States",-108.5540973,45.7582418
Aerial Arts of Bozeman,"714 S 8th Ave, Bozeman, MT 59715, United States",-111.0477444,45.67188059999999
Sole Dance Academy,"2008 4th St NE, Great Falls, MT 59404, United States",-111.3060201,47.5252406
Studio 38,"1 Swords Ln, Billings, MT 59105, United States",-108.4821627,45.8041906
Movement Montana Arts Academy,"925 Broadwater Ave, Billings, MT 59101, United States",-108.5399302,45.77728399999999
Miss Linda's School of Dance,"612 1st Ave S, Great Falls, MT 59401, United States",-111.2964981,47.5040373
"Illusion Dance Company, LLC","11 Division Rd UNIT 7, Great Falls, MT 59404, United States",-111.3102171,47.52537969999999
PoleFit Carolinas Voted Best Pole Dance Studio in NC for 12 years!,"9826 Gilead Rd C-200, Huntersville, NC 28078, United States",-80.8641603,35.4064249
Pink Cherry Pole & Dance Studio,"3682 Capital Blvd, Raleigh, NC 27604, United States",-78.5836728,35.8307562
PoleFit Carolinas - Best Pole Dance Studio in the Carolinas,"807 Williamson Rd suite 107, Mooresville, NC 28117, United States",-80.8623569,35.557884
"TML...Pole Dance, Twerk Classes, Parties & More","6308 Angus Dr suite e, Raleigh, NC 27617, United States",-78.75666269999999,35.8985203
Studio X Pole Fitness,"5129 Bragg Blvd, Fayetteville, NC 28303, United States",-78.9571639,35.0941735
Pole Body & Arts,"9539 Pinnacle Dr Ste 350, Charlotte, NC 28262, United States",-80.7385456,35.328879
Flow Fitness,"7946 Market St Ste. #300, Wilmington, NC 28411, United States",-77.8007263,34.2890035
Pole Play,"6675 Falls of Neuse Rd Suite 121, Raleigh, NC 27615, United States",-78.625268,35.8748853
Inner Diva Fitness,"596 Griffith Rd building 4, Charlotte, NC 28217, United States",-80.8854191,35.1575808
Aradia Fitness,"8420 Chapel Hill Rd #117, Cary, NC 27513, United States",-78.77972950000002,35.7916533
Pole Fitness Studio,"2353 Corporation Pkwy, Burlington, NC 27215, United States",-79.4353715,36.0690425
Kultural Pole & Arts,"412 College Rd Suite 53, Wilmington, NC 28403, United States",-77.8788764,34.2343535
DANCECLUB Asheville,"9 Old Burnsville Hill Rd #3, Asheville, NC 28804, United States",-82.57658479999999,35.6228839
"Studio 360 Pole Fitness, dance and gym","210 Henderson Dr, Jacksonville, NC 28540, United States",-77.41935219999999,34.7630657
Takeila Fox - Pole Fitness Coach,"596 Griffith Rd building 4, Charlotte, NC 28217, United States",-80.88537590000001,35.157549
Tribe Dance & Pole,"457 N Louisiana Ave, Asheville, NC 28806, United States",-82.5921395,35.593901
Elevate Hickory,"14 1st Ave NW, Hickory, NC 28601, United States",-81.3385018,35.7335754
Fred Astaire Dance Studios - Greensboro,"1500 Mill St #105, Greensboro, NC 27408, United States",-79.81224859999999,36.0888759
Cirque de Vol Aerial & Circus Community,"300 W Hargett St #40, Raleigh, NC 27601, United States",-78.6440944,35.778589
FM Aerial & Movement Arts,"508 Oak St N, Fargo, ND 58102, United States",-96.7791323,46.88133759999999
Zero Gravity Alternative Fitness,"3350 35th Ave S, Fargo, ND 58104, United States",-96.8355071,46.8257832
Jez-Mir-Izing,"1910 80th St SE, Bismarck, ND 58504, United States",-100.6687887,46.7840166
Studio X - A New Generation of Dance,"509 30th Ave NW Suite #2, Minot, ND 58703, United States",-101.301703,48.26817279999999
Let's Dance Studio,"4600 N 19th St, Bismarck, ND 58503, United States",-100.7629783,46.8559371
Northern Plains Dance,"1416 E Front Ave, Bismarck, ND 58504, United States",-100.7699618,46.8041203
Brick Studio,"110 1st St SE, Minot, ND 58701, United States",-101.2919244,48.2348945
Bismarck DanceWorX Studio,"1300 Tacoma Ave, Bismarck, ND 58504, United States",-100.772116,46.7833
Spectrum Fitness,"1915 N Broadway, Minot, ND 58703, United States",-101.2968174,48.2548931
Studio 180 Dance Company,"228 Front Ave, Bismarck, ND 58504, United States",-100.7929513,46.8046514
Aerial Bombshell,"4255 S 94th St, Omaha, NE 68127, United States",-96.0583571,41.2172505
Movin' Up,"1415 Dahlberg Dr Suite D, Lincoln, NE 68512, United States",-96.7005328,40.7288904
Elevate Pole Fitness & Dance Studio,"6005 B Maple St, Omaha, NE 68104, United States",-96.0050974,41.2848843
"New Perspectives Pole and Aerial, LLC","35 Londonderry Turnpike, Hooksett, NH 03106, United States",-71.3989181,43.0146522
Heart and Pole Studio,"111 Saranac St Suite 177, Littleton, NH 03561, United States",-71.7799004,44.3068487
Center Stage Fitness & Aerial Arts LLC,"2 Paul's Way Unit 2, Amherst, NH 03031, United States",-71.57328799999999,42.8100026
Purple Kisses Pole Fitness,"1025C Stuyvesant Ave., Union, NJ 07083, United States",-74.26887789999999,40.6967755
Lovely Lioness Pole Dance & Aerial Fitness - Union City,"600 Palisade Ave #426, Union City, NJ 07087, United States",-74.03659809999999,40.7550309
Lovely Lioness Pole Dance & Aerial Fitness,"86 Morris Ave, Neptune City, NJ 07753, United States",-74.0271301,40.200428
"Pole to Pole Fitness, LLC","80 Main St, Woodbridge, NJ 07095, United States",-74.27966680000002,40.5543657
Thrive Embodied Arts | Pole Dancing,"180 Spring St, Newton, NJ 07860, United States",-74.7510015,41.0569228
Elevate YOU Pole Fitness and Aerobic Studio,"203 S Burnt Mill Rd, Voorhees Township, NJ 08043, United States",-75.00697679999999,39.85468729999999
Dakini Movement Studio,"51 Mt Bethel Rd, Warren, NJ 07059, United States",-74.49642779999999,40.6185018
Foxy Fitness and Pole Training Studios NJ,"591 60th St, West New York, NJ 07093, United States",-74.0196472,40.7902057
Alter Ego Pole Fitness and Wellness Studio,"124 Baldwin Ave, Jersey City, NJ 07306, United States",-74.0620673,40.72634300000001
Avant Aerial Studio,"2 Division St Suite 5, Somerville, NJ 08876, United States",-74.613207,40.568169
Shore Pole Fitness,"4A W Front St, Red Bank, NJ 07701, United States",-74.0656017,40.3523522
Femme Body Fitness,"509 32nd St #2, Union City, NJ 07087, United States",-74.02969499999999,40.772213
Lana Dancer LLC,"454 Main St, Fort Lee, NJ 07024, United States",-73.9765377,40.8545526
Wellness On The Green,"961 NJ-10, Randolph, NJ 07869, United States",-74.6077801,40.8549647
Dakini Movement Studio,"4437 NJ-27, Princeton, NJ 08540, United States",-74.6004284,40.3837809
IncrediPole,"43D 9th St, Brooklyn, NY 11215, United States",-73.9956507,40.6738158
Bombshell Fitness,"2510 San Mateo Pl NE, Albuquerque, NM 87110, United States",-106.5860368,35.1077375
Black Widow Pole Arts,"205 Silver Ave SW Ste I, Albuquerque, NM 87102, United States",-106.6506077,35.08286
Vortex Pole Fitness,"4153 NM-68 Unit 3, Ranchos De Taos, NM 87557, United States",-105.6072798,36.36037719999999
Pole Fitness Studio,"4265 Arville St Suite A, Las Vegas, NV 89103, United States",-115.1997381,36.1126136
Sunnys Pole Fitness & Boutique,"707 E Fremont St Suite 3300, Las Vegas, NV 89101, United States",-115.138336,36.1671222
Crash Academy Pole Studio,"3247 S Sammy Davis Jr Dr, Las Vegas, NV 89109, United States",-115.1740627,36.1306577
"Pole Kisses, Bungee and Aerial Fitness","1366 W Cheyenne Ave Suite 111, North Las Vegas, NV 89030, United States",-115.1594865,36.218879
P.Y.T. Fitness L.L.C.,"5870 S Decatur Blvd # 145, Las Vegas, NV 89118, United States",-115.2073958,36.0832453
Shine Alternative Fitness,"6415 S Tenaya Way STE 100, Las Vegas, NV 89113, United States",-115.2528639,36.0720787
Aerial Athletica,"5165 Rousso Rd suite d, Las Vegas, NV 89118, United States",-115.193749,36.09620719999999
Vertical Barre,"1350 Stardust St Suite B, Reno, NV 89503, United States",-119.8349999,39.5280102
Aerial Fitness,"6040 S Fort Apache Rd #101, Las Vegas, NV 89148, United States",-115.2962189,36.0790981
PYT FITNESS,"12 Sunset Way Suite 212 building B, Henderson, NV 89014, United States",-115.0667293,36.0720258
Mobi.Pole,"633 E College Pkwy #33, Carson City, NV 89706, United States",-119.7602023,39.1893643
Pole Expo,"4265 S Arville St, Las Vegas, NV 89103, United States",-115.1996629,36.1126132
Epic Pole Fitness,"210 10th St, Sparks, NV 89431, United States",-119.7554307,39.5352799
Foxy Fitness and Pole Training Studios,"355 7th Ave #306, New York, NY 10001, United States",-73.9923498,40.7482509
Body & Pole,"115 W 27th St, New York, NY 10001, United States",-73.9917013,40.7459721
"Pole to Pole Fitness East Harlem, NYC","419 E 116th St, New York, NY 10029, United States",-73.934412,40.7957895
Brooklyn's Finest Pole Dancing Studio,"1492 Carroll St, Brooklyn, NY 11213, United States",-73.93857899999999,40.6663827
IncrediPole,"43D 9th St, Brooklyn, NY 11215, United States",-73.9956507,40.6738158
Le Femme Suite,"2364 Adam Clayton Powell Jr Blvd, New York, NY 10030, United States",-73.942426,40.81751850000001
Poletic Justice,"566 Morris Park Ave, Bronx, NY 10460, United States",-73.87023030000002,40.8433031
Foxy Fitness and Pole Training Studios NJ,"591 60th St, West New York, NJ 07093, United States",-74.0196472,40.7902057
Got Pole? Pole dancing classes personal training,"3832 Flatlands Ave, Brooklyn, NY 11234, United States",-73.93799179999999,40.6193829
Fly High Dance and Fitness (FLY HIGH FIT),"229 Nassau Blvd, West Hempstead, NY 11552, United States",-73.6605058,40.6999766
PoleArity Palace,"138 W 25th St 7th Floor, New York, NY 10001, United States",-73.99370569999999,40.7447724
Full Circle Brooklyn,"318 Gates Ave Unit C3, Brooklyn, NY 11216, United States",-73.9539377,40.6856708
CANDYCANE NY,"121 Ludlow St 2nd Floor, New York, NY 10002, United States",-73.9887409,40.7197566
Sweet N Sultry Studio,"840 Flatbush Ave 3rd Fl, Brooklyn, NY 11226, United States",-73.95942509999999,40.65191919999999
EveryBody's Nimble,"75 Stewart Ave Suite 201, Brooklyn, NY 11237, United States",-73.92586510000001,40.708271
Zack's Dance Loft,"35 W 38th St, New York, NY 10018, United States",-73.9844492,40.7518486
Vibez Studio,"32 43 Francis Lewis Blvd, Queens, NY 11358, United States",-73.7904957,40.7680672
Sweet Water Dance & Yoga,"810 Gerard Ave, Bronx, NY 10451, United States",-73.92603509999999,40.8254474
Studio Rouge,"4575 N High St, Columbus, OH 43214, United States",-83.0202134,40.0555688
PoleKittens Fitness,"4719 Vine St # 1, Cincinnati, OH 45217, United States",-84.4983918,39.1673882
Candy Cane,"2545 Franksway St, Columbus, OH 43232, United States",-82.88190589999999,39.9224481
Cleveland Eclectic Dance,"3635 Perkins Ave 5th floor, Cleveland, OH 44114, United States",-81.6623651,41.5072645
"Femme Fatale Dayton, LLC","4623 Gateway Cir, Kettering, OH 45440, United States",-84.1348605,39.6770224
Honey Groove Studio,"4028 Parkmead Dr, Grove City, OH 43123, United States",-83.062804,39.8808454
Ecole de Pole Cleveland,"1278 W 9th St, Cleveland, OH 44113, United States",-81.7019575,41.4989735
Saks Pole Fitness,"1178 W Kemper Rd, Cincinnati, OH 45240, United States",-84.52173060000001,39.2906613
Dimension Fitness,"3390 Red Bank Rd, Cincinnati, OH 45227, United States",-84.4022899,39.1369688
"Posh Fitness, LLC","1216 Sycamore St #12, Cincinnati, OH 45202, United States",-84.51008569999999,39.1099472
Heartfelt Pole Studio,"47 E Lincoln St, Columbus, OH 43215, United States",-83.0021689,39.9766993
Oh Foxy Pole Dance Studio,"320 W 4th St, Cincinnati, OH 45202, United States",-84.5181861,39.0992446
Be Fitness,"10400 Clifton Blvd, Cleveland, OH 44102, United States",-81.7563727,41.4855641
Paulette's Studio of Dance,"4853 Monroe St, Toledo, OH 43623, United States",-83.634558,41.6944722
SoUnique Pole Fitness Studio,"3829 Lee Rd, Cleveland, OH 44128, United States",-81.56457859999999,41.455287
Teaze Dance & Fitness - Open By Appointment,"1112 N Broadway Ave, Oklahoma City, OK 73103, United States",-97.5139099,35.478652
Chrome Pole and Aerial,"2433 NW 16th St, Oklahoma City, OK 73107, United States",-97.5563225,35.4861847
Studio 7 Fitness,"812 E 6th St, Tulsa, OK 74120, United States",-95.9815043,36.1526281
Studio pole life,"111 S Sooner Rd, Oklahoma City, OK 73110, United States",-97.424679,35.46325270000001
Heavenlee Aerial Arts/Pole and Fitness,"620 100th St, Perkins, OK 74059, United States",-97.048934,36.00465200000001
International Dance Studio,"3001 NW 73rd St, Oklahoma City, OK 73116, United States",-97.5681019,35.5457407
Aerial Arts of OKC,"8200 N Classen Blvd #120, Oklahoma City, OK 73114, United States",-97.5249816,35.5539357
Ecdysiast Dance Studio,"4904 S Dimple Dr, Del City, OK 73135, United States",-97.4433323,35.4164514
The AERO Space,"111 SE Madison St, Portland, OR 97214, United States",-122.6646298,45.5131818
Sekse Fit - Dance & Pole Fitness,"550 SW Industrial Way Suite 154, Bend, OR 97702, United States",-121.3152004,44.0509297
Ecdysiast,"316 SW 11th Ave #300, Portland, OR 97205, United States",-122.6818504,45.5227261
Pole Palace,"2015 N Kilpatrick St, Portland, OR 97217, United States",-122.6872415,45.5824821
Polemic Dance & Fitness Studio,"519 Main St, Springfield, OR 97477, United States",-123.0190565,44.04602269999999
Altius Pole Studio,"20370 Empire Ave suite C3, Bend, OR 97703, United States",-121.305398,44.0927932
Empowerment Pole Studio,"354 Belmont St NE, Salem, OR 97301, United States",-123.0344488,44.9503289
Diva Den Studio,"8900 SW Commercial St, Tigard, OR 97223, United States",-122.7685739,45.4297113
Diamond Pole Dance Studio,"Upstairs, 617 N Holly St, Medford, OR 97501, United States",-122.8807716,42.3307164
Peng Pole Dance,"815 NE Halsey St, Portland, OR 97232, United States",-122.6568922,45.5340972
Portland Pole + Dance,"305 NW 21st Ave Ste 202, Portland, OR 97209, United States",-122.6947054,45.5251379
Pole Dance And Fitness Rogue Valley,"700 Mistletoe Rd Suite 103, Ashland, OR 97520, United States",-122.6679011,42.1795694
Bliss Pole,"19352 SW Mohave Ct, Tualatin, OR 97062, United States",-122.7657504,45.3795215
SkyDance Pole Fitness,"1607 Williams Hwy Space 4, Grants Pass, OR 97527, United States",-123.3340462,42.42028759999999
Platform360 - Dance classes and movement studio rental,"1840 Willamette St, Eugene, OR 97401, United States",-123.0930871,44.0396089
A-WOL Dance Collective,"513 NE Schuyler St, Portland, OR 97212, United States",-122.6604855,45.53587719999999
Body Flow LLC- Licensed S Factor Classes,"4050 NE Broadway, Portland, OR 97232, United States",-122.6214902,45.5349111
The Lotus Studio,"625 Hawthorne Ave SE ste 130, Salem, OR 97301, United States",-122.9960657,44.9225946
Night Flight Aerial & Circus Arts,"215 SE 9th Ave #104, Portland, OR 97214, United States",-122.6567985,45.5212407
Elite Pole and Fitness,"5629 Bensalem Blvd, Bensalem, PA 19020, United States",-74.9052142,40.1210278
Pennsylvania Pole Academy,"328 N Broad St, Doylestown, PA 18901, United States",-75.1356212,40.3162883
Aries Aerial Arts and Pole Dance Fitness,"419 Poplar St, Scranton, PA 18509, United States",-75.6523302,41.41918220000001
Awakenings Pole Dance Fitness,"3901 B Main St Suite 305, Philadelphia, PA 19127, United States",-75.215555,40.0202857
Studio Spin,"211 N Ann St, Lancaster, PA 17602, United States",-76.29562899999999,40.0427113
Flaunt Fitness,"1939 S 17th St, Philadelphia, PA 19145, United States",-75.1741038,39.926509
Liege Barre & Pole Fitness Boutique,"4642 W 12th St #1, Erie, PA 16505, United States",-80.1860701,42.0821839
Fitness With A Twist 2.0,"1911 E Carson St, Pittsburgh, PA 15203, United States",-79.9786183,40.4287906
Spinning Harts Pole and Dance Studio,"1993 Hummel Ave St 100, Camp Hill, PA 17011, United States",-76.9125964,40.2341789
"Body, Mind, and Chrome","3415 Pleasant Valley Blvd, Altoona, PA 16602, United States",-78.3986786,40.4832963
The Pole Studio,"1611 Frankford Ave, Philadelphia, PA 19125, United States",-75.1330662,39.97437439999999
Pole Empress,"4555 Germantown Ave, Philadelphia, PA 19144, United States",-75.15965849999999,40.0244973
High Priestess Pole Studio,"409 Spruce St, Scranton, PA 18503, United States",-75.664637,41.40868
Spinning Harts,"7011 Allentown Blvd #11, West Hanover Township, PA 17112, United States",-76.7545471,40.3294982
Chrome Empire Pole Dance Studio,"4460 Steubenville Pike, Pittsburgh, PA 15205, United States",-80.09660339999999,40.4436116
Abstract Aerial Academy,"1701 Union Blvd Suite 200, Allentown, PA 18109, United States",-75.43011349999999,40.6254544
Exhibit,"2745 N 47th St, Philadelphia, PA 19131, United States",-75.22322539999999,40.0014855
"Triple Moon Pole Studio, LLC","360 Market St Suite 205, Williamsport, PA 17701, United States",-77.0017565,41.2422333
Metropolis Dance Studio,"202 North St, Harrisburg, PA 17101, United States",-76.887905,40.2642423
Fitness Envi by Aubrey Worek,"41 N Main St, Greensburg, PA 15601, United States",-79.5443015,40.3034103
JM Kennedy Dance & Pole Fitness Studio,"21 Broad St, Pawtucket, RI 02860, United States",-71.38623439999999,41.8786922
Providence Pole Fitness,"418 Buttonwoods Ave, Warwick, RI 02886, United States",-71.42696169999999,41.6956842
RI Pole Space,"cc, 15 Moshassuck Rd #3d, Lincoln, RI 02865, United States",-71.40787519999999,41.893178
In Your Skin Studio,"669 Elmwood Ave Unit b-6, Providence, RI 02907, United States",-71.42533209999999,41.7941802
Pole Fitness Rhode Island,"730 B, Kingstown Rd, South Kingstown, RI 02879, United States",-71.49039359999999,41.443869
Krissy's Dance & Fitness Studio,"1531 Smith St, North Providence, RI 02911, United States",-71.4618282,41.8504978
Teazers Pole Fitness & Dance Studio,"568 George Bishop Pkwy, Myrtle Beach, SC 29579, United States",-78.9410247,33.7114639
The Pole Academy LLC,"637 Congaree Rd Unit G, Greenville, SC 29607, United States",-82.3231047,34.8457335
Elysium Aerial Fitness,"1825 Laurel St, Columbia, SC 29201, United States",-81.02641799999999,34.0131942
Amorous Dance Pole and Fitness,"1706 Old Towne Rd, Charleston, SC 29407, United States",-79.99260939999999,32.8174324
Inversions Pole Fitness LLC.,"716 S Shelmore Blvd #102, Mt Pleasant, SC 29464, United States",-79.8776884,32.8116192
Goddess Dance Studio,"121 College Park Rd, Ladson, SC 29456, United States",-80.10084739999999,32.9928362
Tipsy Twerk,"1703 Savannah Hwy Unit 3, Charleston, SC 29407, United States",-80.01676789999999,32.7870219
"Pole Dance Classes Lessons for Parties/Events Charleston, SC","84 N Market St, Charleston, SC 29401, United States",-79.930301,32.781135
Levels Pole Fitness,"382 W Evans St, Florence, SC 29501, United States",-79.77225229999999,34.1969007
Aerial Elements,"36 Persimmon St #303B, Bluffton, SC 29910, United States",-80.862928,32.260173
Myrtle Beach Pole,"4108 Carolina Commercial Dr Unit 7, Myrtle Beach, SC 29579, United States",-78.9641597,33.7609762
Aerial Fit,"1045 5th Ave, Charleston, SC 29407, United States",-79.99126869999999,32.79510920000001
Pole Fitness Studio,"115 Hampton Ave, Greenwood, SC 29646, United States",-82.16328960000001,34.192279
Smash Studios Aerial Arts Fitness Studios,"227 2nd St, Cheraw, SC 29520, United States",-79.8840641,34.6980818
Step South Dance,"1712 Ebenezer Rd, Rock Hill, SC 29732, United States",-81.0454338,34.9577626
Dance Lab,"1660 Sam Rittenberg Blvd #3, Charleston, SC 29407, United States",-80.012618,32.806064
Amorous Dance,"401 Front St, Summerville, SC 29486, United States",-80.14170109999999,33.040931
Studio Allure,"1055 Sparkleberry Ln Ext Suite L, Columbia, SC 29223, United States",-80.88615639999999,34.1199615
Polerina Studio,"Rushmore Mall, 2200 N Maple Ave, Rapid City, SD 57701, United States",-103.2137776,44.1070328
"Soul Pole Studios, LLC","401 E 8th St #330f, Sioux Falls, SD 57103, United States",-96.7221875,43.54741
Aerial Arts by Avery,"1503 US-281, Aberdeen, SD 57401, United States",-98.5148686,45.44945999999999
Barefoot Dance Studio,"412 Oshkosh St St, Rapid City, SD 57702, United States",-103.2414362,44.0826933
Studio Disco,"601 Kansas City St Ste 2, Rapid City, SD 57701, United States",-103.2282064,44.07862739999999
On Your Toes Dance Studio,"1211 Oregon St, Rapid City, SD 57701, United States",-103.1960629,44.051545
Prima School of Dancing,"3401 Sturgis Rd, Rapid City, SD 57702, United States",-103.276117,44.0832548
Academy of Dance Arts - Downtown,"230 Main St suite b, Rapid City, SD 57701, United States",-103.2209491,44.080466
Academy of Dance Arts,"4251 Canyon Lake Dr, Rapid City, SD 57702, United States",-103.2886636,44.0619613
5678 Dance Studio,"208 Westshore Dr, North Sioux City, SD 57049, United States",-96.5272895,42.543981
Liquid Hip Therapy,"140 N Carla Ave, Tea, SD 57064, United States",-96.8328807,43.4470497
BodyWorkz Pole Fitness,"5963 Summer Ave #106, Memphis, TN 38134, United States",-89.8635595,35.1760715
The Chrome Bar Boutique Fitness Studio,"2809 Dickerson Pike, Nashville, TN 37207, United States",-86.76255069999999,36.2181991
Miss Fit Academy,"265 Hermitage Ave, Nashville, TN 37210, United States",-86.7534587,36.1534427
Sheer Inspiration Pole Fitness,"121 W Jackson Ave, Knoxville, TN 37902, United States",-83.91921789999999,35.9700048
Studio Goddess,"919 8th Ave S #1, Nashville, TN 37203, United States",-86.7793768,36.1456299
Katwalk Fitness & Burlesque,"149 Kender Rhea Ct, Clarksville, TN 37043, United States",-87.2801473,36.5042797
Party Girls Dance & Fitness Studio,"1101 Hixson Pike # A, Chattanooga, TN 37405, United States",-85.2895278,35.0688247
14 Karat Studio Fitness,"215 W Main St Suite 201, Morristown, TN 37814, United States",-83.29415399999999,36.212572
Night Owl Circus Arts North,"1777 Old Gray Station Rd, Johnson City, TN 37615, United States",-82.41065110000001,36.38380650000001
Studio Synergy,"675 Middle Tennessee Blvd D, Murfreesboro, TN 37129, United States",-86.4009967,35.8293505
Not Your Average Workout,"4143 Willow Lake Blvd, Memphis, TN 38118, United States",-89.8898925,35.0362854
Night Owl Circus Arts South,"2203 McKinley Rd #520, Johnson City, TN 37604, United States",-82.3901985,36.3041193
Weave Dance Company,"3641 Brainerd Rd J, Chattanooga, TN 37411, United States",-85.2444745,35.0244601
Bendy Beast Fitness - Midtown Memphis,"1202 Minna Pl, Memphis, TN 38104, United States",-90.02163250000001,35.1288015
Elevation Arts and Fitness,"11031 Lake Ridge Dr, Knoxville, TN 37934, United States",-84.13997169999999,35.8631916
Massari-Wood Dance Center,"1070 Graysville Rd, Chattanooga, TN 37421, United States",-85.1493775,35.0031338
Releve One Fitness and Dance Studios,"415 Duke Dr #370, Franklin, TN 37067, United States",-86.8329754,35.9502996
Dance By M.E.,"449 S Kings Hwy, Murfreesboro, TN 37129, United States",-86.3978624,35.8400171
World Champion Productions,"143 New Shackle Island Rd #12, Hendersonville, TN 37075, United States",-86.6331558,36.3090362
Studio One,"2601 Fort Henry Dr, Kingsport, TN 37664, United States",-82.5176121,36.5213662
Zensual Dance Fitness,"14227 Inwood Rd, Farmers Branch, TX 75244, United States",-96.8265505,32.9414542
Power BAR Dallas Pole Dance Studio | DFW,"3406 Main St, Dallas, TX 75226, United States",-96.7756904,32.7853175
Altitude Pole Fitness & Aerial Arts,"8855 Preston Trace Blvd #300, Frisco, TX 75033, United States",-96.8049307,33.1558246
The Pole Experience Dance Fitness Studio,"2702 McGowen St, Houston, TX 77004, United States",-95.3594382,29.7363341
Extend Fitness Studio,"136 Glass St #140, Dallas, TX 75207, United States",-96.8230626,32.7896738
"Inner Me Studios | Pole Dance Classes, Houston Dance Studio","2206 Emancipation Ave, Houston, TX 77003, United States",-95.3604602,29.7405378
SkyPole Fitness,"5753 Westcreek Dr, Fort Worth, TX 76133, United States",-97.3613753,32.6597475
North Pole Dance Studio,"20626 Stone Oak Pkwy #104, San Antonio, TX 78258, United States",-98.4629211,29.6488323
ATX Pole Fitness,"1100 Sam Bass Rd #202, Round Rock, TX 78681, United States",-97.6937681,30.5173721
Twisted Fit,"1609 Spring Cypress Rd Suite B, Spring, TX 77388, United States",-95.4376498,30.0728549
Inner Diva Studios,"10401 Anderson Mill Rd #104, Austin, TX 78750, United States",-97.8048095,30.4467716
Revolve Pole Studio,"6308 Richmond Ave., Houston, TX 77057, United States",-95.4941635,29.7326679
North Pole Dance Studio BANDERA,"5417 Bandera Rd #603, San Antonio, TX 78238, United States",-98.5926571,29.4817051
Twisted Grip Fitness,"430 N Coit Rd Ste 300, Richardson, TX 75080, United States",-96.7673,32.9571366
soFly Social,"2426 Webberville Rd, Austin, TX 78702, United States",-97.7140099,30.2632794
Best Pole Dance Parties Dallas,"3406 Main St, Dallas, TX 75226, United States",-96.7756904,32.7853175
DFW Pole Dance Parties Dallas Tx,"17250 Dallas Pkwy, Dallas, TX 75248, United States",-96.8276476,32.9852989
Soft Sensuous Moves LLC,"6441 Blanco Rd, San Antonio, TX 78216, United States",-98.5073385,29.5144579
Head Over Heels Fitness,"1013 Wal Street Suite 105/F, Longview, TX 75605, United States",-94.7283024,32.5455994
Brass Ovaries,"6039 N Interstate 35 Frontage Rd B, Austin, TX 78723, United States",-97.7053565,30.3214048
Onyx Pole and Aerial Fitness Studio,"8385 Allen St #114, Sandy, UT 84070, United States",-111.90623,40.59867
The Moxy Movement,"12441 900 E Suite 105, Draper, UT 84020, United States",-111.865509,40.5247955
La Bombe Pole Fitness,"3130 S Highland Dr b2, Millcreek, UT 84106, United States",-111.8521076,40.702108
Harmony Fitness Studio,"1431 S State St, Orem, UT 84097, United States",-111.6822311,40.2712128
Kairos Fitness,"3230 Washington Blvd, Ogden, UT 84401, United States",-111.9703505,41.2052399
The Salt Mine SLC,"1077 S Main St, Salt Lake City, UT 84111, United States",-111.8905183,40.7455168
Poler's Cove,"3818 13400 S Suite 400 Suite 400, Riverton, UT 84065, United States",-111.9819184,40.5085874
Studio Invert,"221 W 200 S Suite C, St. George, UT 84770, United States",-113.5879716,37.1045738
PoleFit Center Orem,"709 1200 W, Orem, UT 84057, United States",-111.7249017,40.3097073
Kairos Fitness,"803 N 1250 W #3, Centerville, UT 84014, United States",-111.8977538,40.9266641
The Aerial Arcade,"W Willard Park Ct, Riverton, UT 84096, United States",-111.991127,40.5183504
Jive Dance Studio,"1752 S State St, Orem, UT 84097, United States",-111.6816253,40.2649726
Charisma Dance Studio,"245 S Main St, Springville, UT 84663, United States",-111.610054,40.1632232
U Dance Studio,"1491 N 2950 W, Lehi, UT 84043, United States",-111.8971431,40.4059466
Dance Magic Studios,"369 N 100 W STE 4, Cedar City, UT 84721, United States",-113.0638548,37.6838918
Utah Dance House,"942 W 1100 N, Pleasant Grove, UT 84062, United States",-111.7543512,40.3758899
Starrsteppers Dance Studio,"434 S Main St, Logan, UT 84321, United States",-111.8346993,41.7232656
Southeastern Utah Aerial Studio,"835 West SR 29 Mail to Post Office 848, Castle Dale, UT 84513, United States",-111.0382544,39.2269884
Southern Utah Pole Dance,"270 N 2940 E, St. George, UT 84790, United States",-113.5229224,37.1130328
Dance Biz,"2724 3600 W, West Valley City, UT 84119, United States",-111.978786,40.7090547
Studio Rio's Twisted Fitness,"3707 Virginia Beach Blvd Suite 100, Virginia Beach, VA 23452, United States",-76.0997457,36.8396941
Butter & Filth Pole and Aerial,"4840 Waller Rd #310, Richmond, VA 23230, United States",-77.49054199999999,37.589628
Doll House Pole Fitness,"10969 Lute Ct, Manassas, VA 20109, United States",-77.5234268,38.8006951
FIT 4 Polers,"2304 Huntington Ave A, Alexandria, VA 22303, United States",-77.0709689,38.7946154
DivaFit Pole and Aerial Fitness,"317 Sunset Park Dr, Herndon, VA 20170, United States",-77.37398619999999,38.957728
Rebel Dance & Pole,"11047 Pierson Dr suite j, Fredericksburg, VA 22408, United States",-77.4366028,38.2608712
The Shakti Rising,"45630 Falke Plaza Suite 270, Sterling, VA 20166, United States",-77.42217099999999,38.9791953
Phoenix Fitness and Dance,"9705 Liberia Ave Unit 399, Manassas, VA 20110, United States",-77.4485378,38.74592639999999
Dazzling Diva Fitness,"121 Weems Ln, Winchester, VA 22601, United States",-78.17807859999999,39.1610704
SOUL Aerial and Performing Arts Center,"1632 Ownby Ln, Richmond, VA 23220, United States",-77.4588861,37.5639306
Pink Ambition Pole Fitness,"31C E Market St, Harrisonburg, VA 22801, United States",-78.86817359999999,38.4492457
Arete Pole Fitness,"1600B S Colorado St, Salem, VA 24153, United States",-80.05411219999999,37.27419709999999
The Phoenix Dance Studio,"629 Berkmar Cir, Charlottesville, VA 22901, United States",-78.47924809999999,38.0857071
The Vibe Studio of Lynchburg,"1957 Fort Ave, Lynchburg, VA 24501, United States",-79.157635,37.4046628
Hipnotic World Fitness Center,"139 Tilden Ave 2nd Floor, Chesapeake, VA 23320, United States",-76.2444316,36.7249367
Vertical Appeal,"5160 Glenbeigh Dr, Richmond, VA 23234, United States",-77.4926444,37.4599788
RevolVT,"294 N Winooski Ave #125, Burlington, VT 05401, United States",-73.2075203,44.4876856
Fusion 802 Dance,"1881 Williston Rd, South Burlington, VT 05403, United States",-73.1518208,44.461536
South End Studio,"696 Pine St, Burlington, VT 05401, United States",-73.21425889999999,44.46008930000001
Murmurations Aerial Dance,"208 Flynn Ave Suite 3K, Burlington, VT 05401, United States",-73.21790659999999,44.45590560000001
Raq-On Dance,"87 Maple St, White River Junction, VT 05001, United States",-72.31660169999999,43.6515916
Contemporary Dance & Fitness,"18 Langdon St, Montpelier, VT 05602, United States",-72.5756176,44.2607745
Up North Dance Studio,"154 Brentwood Dr, Colchester, VT 05446, United States",-73.1692944,44.5961938
Lines Vermont Dance Studio + Store,"10 Farrell St # 6, South Burlington, VT 05403, United States",-73.20418389999999,44.4461784
Studio 3 Dance,"65 Creek Farm Plaza, Colchester, VT 05446, United States",-73.165934,44.5514448
Spotlight Vermont @ Middlebury Fitness,"175 Wilson Rd, Middlebury, VT 05753, United States",-73.14468719999999,43.99922429999999
Bohemienne Fitness,"32 Malletts Bay Ave, Winooski, VT 05404, United States",-73.1910905,44.4923392
Positive Spin Pole Dance Fitness,"124 N 103rd St Ste C, Seattle, WA 98133, United States",-122.3567103,47.7038503
Pole Fitness Seattle LLC,"3100 Airport Way South Building 25 Suite 500, mailbox #20, Seattle, WA 98134, United States",-122.3203352,47.5755123
Ascendance Pole and Aerial Arts,"724 S 3rd St A, Renton, WA 98057, United States",-122.2071596,47.4797826
Studio 4 Pole 4 Fun,"9014 NE St Johns Rd UNIT 112, Vancouver, WA 98665, United States",-122.6243252,45.6876493
"Soul Magik Studios Twirl Lit Fitness, LLC Pole Dance Fitness Studio in Spokane, WA","2914 E Boone Ave Unit #4, Spokane, WA 99202, United States",-117.3676247,47.6689037
Athena Vertical Dance,"715 Commerce St, Tacoma, WA 98402, United States",-122.4399829,47.256659
"BLUSH Pole Fitness & Dance, LLC","7701 W Greenfield Ave, West Allis, WI 53214, United States",-88.0085431,43.0165194
Aerial Dance Pole Exercise LLC,"1871 N Silverspring Dr, Appleton, WI 54911, United States",-88.48281539999999,44.2778483
Miss Pole - Brookfield,"17800 W Bluemound Rd, Brookfield, WI 53045, United States",-88.13492579999999,43.0378112
Pole Tific Fitness Studio,"5330 W Burnham St, West Milwaukee, WI 53219, United States",-87.9801387,43.0102926
Miss Pole,"8501 75th St, Kenosha, WI 53142, United States",-87.9104261,42.5657864
Pole Factory MKE,"117 W Walker St, Milwaukee, WI 53204, United States",-87.9119269,43.02194859999999
Miss Pole - Madison,"7475 Mineral Point Rd, Madison, WI 53719, United States",-89.5129437,43.0579227
Carousel Pole Fitness,"1920 Crest View Dr Suite 8, Hudson, WI 54016, United States",-92.7322602,44.961877
Aerial Dance Green Bay LLC,"1601 Lawrence Dr #109, De Pere, WI 54115, United States",-88.1061924,44.4322299
Metamorphosis Arts,"234 Main St, Racine, WI 53403, United States",-87.783975,42.731034
Fly Circus & Aerial Arts,"101 W Edison Ave Suite 110, Appleton, WI 54915, United States",-88.4049984,44.25479989999999
EXOTIC FITNESS,"west, 5330 W Burnham St, West Milwaukee, WI 53219, United States",-87.9801763,43.0102926
Posh-Fit,"319 Main St Suite 412, La Crosse, WI 54601, United States",-91.2516902,43.8128194
"Spin Sisters | Aerial, Pole, and Flow Arts","1702 N 6th St Suite B, Wausau, WI 54403, United States",-89.623543,44.9703528
Pole Club Madison,"2358 E Springs Dr Suite 700, Madison, WI 53704, United States",-89.2953337,43.1293235
Dragonfly Fitness and Training,"308 N Barstow St, Eau Claire, WI 54703, United States",-91.5018629,44.8157826
The Pole Barn studio,"122 Water St S, Stillwater, MN 55082, United States",-92.8053727,45.0561319
Pure Gravity Fitness,"5494 Elevator Rd, Roscoe, IL 61073, United States",-89.01005169999999,42.4283905
Dance Life Studio and Fitness,"6725 Seybold Rd, Madison, WI 53719, United States",-89.49993889999999,43.0513267
MX Gym,"2431 Elmira Ave, Superior, WI 54880, United States",-92.1152443,46.70807509999999
Vertical Vixens Pole Fitness LLC,"741 E Main St, Clarksburg, WV 26301, United States",-80.3222899,39.2722196
Dance Rebellion And Fitness,"347 Dunkard Ave, Westover, WV 26501, United States",-79.9786767,39.6384792
WREXX DANCE,"508 W McDermott Dr #120, Allen, TX 75013, United States",-96.6754279,33.1022583
Chateau Wo. “ A Pole Dance Boutique”,"5312 Rozzelles Ferry Rd, Charlotte, NC 28214, United States",-80.89610549999999,35.2766917
DOM Dancing Space,"21146 Ventura Blvd, Woodland Hills, CA 91364, United States",-118.5944127,34.1669884
Haven,"2079 E 15th St Suite 236, Los Angeles, CA 90021, United States",-118.2332881,34.0229052
Atomic Allure,"337 13th St #201, Oakland, CA 94612, United States",-122.2688271,37.8024118
Spin Sity Pole Dance and Fitness Studio,"1865 Adobe St b, Concord, CA 94520, United States",-122.0376483,37.9768991